GPS BIIF-4              
1 39166U 13023A   26060.98893270  .00000006  00000+0  00000+0 0  9998
2 39166  54.5878 273.3391 0141552  49.8819 311.3944  2.00564153 93732
INSAT-3D                
1 39216U 13038B   26061.97034322 -.00000354  00000+0  00000+0 0  9992
2 39216   1.6518  83.9345 0001804 238.4653 317.1344  1.00273934 46013
GPS BIIF-5              
1 39533U 14008A   26061.48588350 -.00000013  00000+0  00000+0 0  9995
2 39533  53.6376 153.6733 0082226 228.2234 131.0919  2.00552925 87544
LUCH 5V                 
1 39727U 14023A   26062.10603336 -.00000282  00000+0  00000+0 0  9997
2 39727   4.8715  70.7857 0002951 275.9339 307.0543  1.00272065 43297
GPS BIIF-6              
1 39741U 14026A   26061.76411200 -.00000096  00000+0  00000+0 0  9997
2 39741  56.5473 335.6635 0039889 324.4172  35.3477  2.00568745 86401
GPS BIIF-7              
1 40105U 14045A   26061.85151001  .00000019  00000+0  00000+0 0  9998
2 40105  55.2800  92.7002 0031535 120.5034 239.8806  2.00551356 83941
GSAT0201 (GALILEO 5)    
1 40128U 14050A   26059.54184441  .00000000  00000+0  00000+0 0  9996
2 40128  48.9916 277.8823 1657122 175.1843 186.6547  1.85519933 76301
GSAT0202 (GALILEO 6)    
1 40129U 14050B   26058.18083150  .00000012  00000+0  00000+0 0  9994
2 40129  49.0095 277.0224 1657890 175.8719 185.7122  1.85520639 78441
GPS BIIF-8              
1 40294U 14068A   26061.72976413 -.00000072  00000+0  00000+0 0  9990
2 40294  56.9183  35.0563 0062729  68.0429 292.6114  2.00569705 83077
GLONASS-K 2             
1 40315U 14075A   26060.84023701 -.00000015  00000+0  00000+0 0  9994
2 40315  63.6170 194.0851 0020735 205.7160 154.1408  2.13101099 87569
GPS BIIF-9              
1 40534U 15013A   26061.36244132 -.00000015  00000+0  00000+0 0  9991
2 40534  53.1867 208.5939 0108729  39.7757 320.9603  2.00557677 79681
GSAT0203 (GALILEO 7)    
1 40544U 15017A   26058.52158611 -.00000103  00000+0  00000+0 0  9994
2 40544  56.8234 344.5881 0005161 295.0116  64.9415  1.70475495 67337
GSAT0204 (GALILEO 8)    
1 40545U 15017B   26058.19060141 -.00000102  00000+0  00000+0 0  9997
2 40545  56.8295 344.6151 0004389 286.3298  73.6287  1.70475370 30371
GPS BIIF-10             
1 40730U 15033A   26061.52302351  .00000001  00000+0  00000+0 0  9991
2 40730  54.0659 271.4826 0114453  28.9403 331.7281  2.00561632 77856
METEOSAT-11 (MSG-4)     
1 40732U 15034A   26062.08921993  .00000047  00000+0  00000+0 0  9995
2 40732   2.9341  71.6891 0001800 270.8063 219.9029  1.00265683  6159
GSAT0205 (GALILEO 9)    
1 40889U 15045A   26043.95434207  .00000078  00000+0  00000+0 0  9996
2 40889  53.6403 225.6057 0359599  59.9658 303.5577  1.67410800 64211
GSAT0206 (GALILEO 10)   
1 40890U 15045B   26061.69895769  .00000010  00000+0  00000+0 0  9999
2 40890  54.9811 224.5416 0003832  50.0037 309.9714  1.70473640 65226
